KUIPER-00097            
1 65136U 25171E   26066.31115842  .00007622  00000+0  10276-2 0  9996
2 65136  51.9016 171.2281 0000395  97.5610 262.5398 14.79936789 32498
KUIPER-00098            
1 65137U 25171F   26066.30841669 -.00008565  00000+0 -10968-2 0  9996
2 65137  51.9025 173.6194 0001732 160.7669 199.3359 14.79895657 31818
KUIPER-00099            
1 65138U 25171G   26065.67859018  .00006924  00000+0  93719-3 0  9994
2 65138  51.9012 166.3961 0000630  39.2358 320.8650 14.79893650 32511
KUIPER-00100            
1 65139U 25171H   26066.25440586  .00006261  00000+0  84960-3 0  9998
2 65139  51.8988 161.3199 0000718  87.4728 272.6317 14.79930223 32639
KUIPER-00102            
1 65140U 25171J   26066.31902700  .00007285  00000+0  98150-3 0  9991
2 65140  51.8996 163.5607 0000493  76.8793 283.2224 14.80023538 32608
KUIPER-00103            
1 65141U 25171K   26066.33414100  .00017707  00000+0  23470-2 0  9998
2 65141  51.8990 180.9859 0001743 124.9421 235.1705 14.79907801 32362
KUIPER-00104            
1 65142U 25171L   26066.28005182  .00003692  00000+0  51336-3 0  9990
2 65142  51.9009 168.6876 0000776  66.6891 293.4153 14.79904497 32536
KUIPER-00105            
1 65143U 25171M   26066.30556818  .00007338  00000+0  99216-3 0  9991
2 65143  51.9001 176.1941 0001369  97.1693 262.9425 14.79861591 32433
KUIPER-00106            
1 65144U 25171N   26066.30719387  .00005755  00000+0  51413-3 0  9992
2 65144  51.8919 165.7980 0007971  90.9989 269.1894 14.97177597 32583
KUIPER-00107            
1 65145U 25171P   26066.25706866 -.00002538  00000+0 -30383-3 0  9996
2 65145  51.8984 158.8491 0000465  76.6662 283.4352 14.79964958 32679
KUIPER-00108            
1 65146U 25171Q   26066.27739047  .00004033  00000+0  55774-3 0  9997
2 65146  51.9039 171.2753 0000909 159.3936 200.7064 14.79933220 32500
KUIPER-00109            
1 65147U 25171R   26066.31653951  .00004268  00000+0  58846-3 0  9995
2 65147  51.9009 166.0439 0000244  64.1583 295.9404 14.79931666 32577
KUIPER-00110            
1 65148U 25171S   26066.33788270  .00007325  00000+0  98818-3 0  9991
2 65148  51.8998 178.5473 0001893 182.6985 177.3968 14.79958855 32390
KUIPER-00111            
1 65149U 25171T   26066.29728753  .00007363  00000+0  99112-3 0  9997
2 65149  51.8976 183.6239 0001795 144.2179 215.8904 14.80049849 32321
KUIPER-00112            
1 65150U 25171U   26066.28267311  .00007108  00000+0  95823-3 0  9998
2 65150  51.9012 166.2471 0000295  78.3409 281.7587 14.80029465 32564
KUIPER-00114            
1 65151U 25171V   26066.29496711  .00007316  00000+0  98754-3 0  9995
2 65151  51.8989 186.1919 0001057 135.3184 224.7864 14.79936363 32282
