[{"OBJECT_NAME":"KUIPER-00097","OBJECT_ID":"2025-171E","EPOCH":"2026-03-07T07:28:04.087488","MEAN_MOTION":14.79936789,"ECCENTRICITY":3.958e-5,"INCLINATION":51.9016,"RA_OF_ASC_NODE":171.2281,"ARG_OF_PERICENTER":97.561,"MEAN_ANOMALY":262.5398,"EPHEMERIS_TYPE":0,"CLASSIFICATION_TYPE":"U","NORAD_CAT_ID":65136,"ELEMENT_SET_NO":999,"REV_AT_EPOCH":3249,"BSTAR":0.0010275873,"MEAN_MOTION_DOT":7.622e-5,"MEAN_MOTION_DDOT":0},{"OBJECT_NAME":"KUIPER-00098","OBJECT_ID":"2025-171F","EPOCH":"2026-03-07T07:24:07.202016","MEAN_MOTION":14.79895657,"ECCENTRICITY":0.00017327,"INCLINATION":51.9025,"RA_OF_ASC_NODE":173.6194,"ARG_OF_PERICENTER":160.7669,"MEAN_ANOMALY":199.3359,"EPHEMERIS_TYPE":0,"CLASSIFICATION_TYPE":"U","NORAD_CAT_ID":65137,"ELEMENT_SET_NO":999,"REV_AT_EPOCH":3181,"BSTAR":-0.0010968153,"MEAN_MOTION_DOT":-8.565e-5,"MEAN_MOTION_DDOT":0},{"OBJECT_NAME":"KUIPER-00099","OBJECT_ID":"2025-171G","EPOCH":"2026-03-06T16:17:10.191552","MEAN_MOTION":14.7989365,"ECCENTRICITY":6.3e-5,"INCLINATION":51.9012,"RA_OF_ASC_NODE":166.3961,"ARG_OF_PERICENTER":39.2358,"MEAN_ANOMALY":320.865,"EPHEMERIS_TYPE":0,"CLASSIFICATION_TYPE":"U","NORAD_CAT_ID":65138,"ELEMENT_SET_NO":999,"REV_AT_EPOCH":3251,"BSTAR":0.00093719274,"MEAN_MOTION_DOT":6.924e-5,"MEAN_MOTION_DDOT":0},{"OBJECT_NAME":"KUIPER-00100","OBJECT_ID":"2025-171H","EPOCH":"2026-03-07T06:06:20.666304","MEAN_MOTION":14.79930223,"ECCENTRICITY":7.189e-5,"INCLINATION":51.8988,"RA_OF_ASC_NODE":161.3199,"ARG_OF_PERICENTER":87.4728,"MEAN_ANOMALY":272.6317,"EPHEMERIS_TYPE":0,"CLASSIFICATION_TYPE":"U","NORAD_CAT_ID":65139,"ELEMENT_SET_NO":999,"REV_AT_EPOCH":3263,"BSTAR":0.0008496049,"MEAN_MOTION_DOT":6.261e-5,"MEAN_MOTION_DDOT":0},{"OBJECT_NAME":"KUIPER-00102","OBJECT_ID":"2025-171J","EPOCH":"2026-03-07T07:39:23.932800","MEAN_MOTION":14.80023538,"ECCENTRICITY":4.935e-5,"INCLINATION":51.8996,"RA_OF_ASC_NODE":163.5607,"ARG_OF_PERICENTER":76.8793,"MEAN_ANOMALY":283.2224,"EPHEMERIS_TYPE":0,"CLASSIFICATION_TYPE":"U","NORAD_CAT_ID":65140,"ELEMENT_SET_NO":999,"REV_AT_EPOCH":3260,"BSTAR":0.00098149747,"MEAN_MOTION_DOT":7.285e-5,"MEAN_MOTION_DDOT":0},{"OBJECT_NAME":"KUIPER-00103","OBJECT_ID":"2025-171K","EPOCH":"2026-03-07T08:01:09.782400","MEAN_MOTION":14.79907801,"ECCENTRICITY":0.00017438,"INCLINATION":51.899,"RA_OF_ASC_NODE":180.9859,"ARG_OF_PERICENTER":124.9421,"MEAN_ANOMALY":235.1705,"EPHEMERIS_TYPE":0,"CLASSIFICATION_TYPE":"U","NORAD_CAT_ID":65141,"ELEMENT_SET_NO":999,"REV_AT_EPOCH":3236,"BSTAR":0.0023469622,"MEAN_MOTION_DOT":0.00017707,"MEAN_MOTION_DDOT":0},{"OBJECT_NAME":"KUIPER-00104","OBJECT_ID":"2025-171L","EPOCH":"2026-03-07T06:43:16.477248","MEAN_MOTION":14.79904497,"ECCENTRICITY":7.763e-5,"INCLINATION":51.9009,"RA_OF_ASC_NODE":168.6876,"ARG_OF_PERICENTER":66.6891,"MEAN_ANOMALY":293.4153,"EPHEMERIS_TYPE":0,"CLASSIFICATION_TYPE":"U","NORAD_CAT_ID":65142,"ELEMENT_SET_NO":999,"REV_AT_EPOCH":3253,"BSTAR":0.00051336317,"MEAN_MOTION_DOT":3.692e-5,"MEAN_MOTION_DDOT":0},{"OBJECT_NAME":"KUIPER-00105","OBJECT_ID":"2025-171M","EPOCH":"2026-03-07T07:20:01.090752","MEAN_MOTION":14.79861591,"ECCENTRICITY":0.0001369,"INCLINATION":51.9001,"RA_OF_ASC_NODE":176.1941,"ARG_OF_PERICENTER":97.1693,"MEAN_ANOMALY":262.9425,"EPHEMERIS_TYPE":0,"CLASSIFICATION_TYPE":"U","NORAD_CAT_ID":65143,"ELEMENT_SET_NO":999,"REV_AT_EPOCH":3243,"BSTAR":0.00099216245,"MEAN_MOTION_DOT":7.338e-5,"MEAN_MOTION_DDOT":0},{"OBJECT_NAME":"KUIPER-00106","OBJECT_ID":"2025-171N","EPOCH":"2026-03-07T07:22:21.550368","MEAN_MOTION":14.97177597,"ECCENTRICITY":0.00079718,"INCLINATION":51.8919,"RA_OF_ASC_NODE":165.798,"ARG_OF_PERICENTER":90.9989,"MEAN_ANOMALY":269.1894,"EPHEMERIS_TYPE":0,"CLASSIFICATION_TYPE":"U","NORAD_CAT_ID":65144,"ELEMENT_SET_NO":999,"REV_AT_EPOCH":3258,"BSTAR":0.00051413427,"MEAN_MOTION_DOT":5.755e-5,"MEAN_MOTION_DDOT":0},{"OBJECT_NAME":"KUIPER-00107","OBJECT_ID":"2025-171P","EPOCH":"2026-03-07T06:10:10.732224","MEAN_MOTION":14.79964958,"ECCENTRICITY":4.657e-5,"INCLINATION":51.8984,"RA_OF_ASC_NODE":158.8491,"ARG_OF_PERICENTER":76.6662,"MEAN_ANOMALY":283.4352,"EPHEMERIS_TYPE":0,"CLASSIFICATION_TYPE":"U","NORAD_CAT_ID":65145,"ELEMENT_SET_NO":999,"REV_AT_EPOCH":3267,"BSTAR":-0.00030382787,"MEAN_MOTION_DOT":-2.538e-5,"MEAN_MOTION_DDOT":0},{"OBJECT_NAME":"KUIPER-00108","OBJECT_ID":"2025-171Q","EPOCH":"2026-03-07T06:39:26.536608","MEAN_MOTION":14.7993322,"ECCENTRICITY":9.09e-5,"INCLINATION":51.9039,"RA_OF_ASC_NODE":171.2753,"ARG_OF_PERICENTER":159.3936,"MEAN_ANOMALY":200.7064,"EPHEMERIS_TYPE":0,"CLASSIFICATION_TYPE":"U","NORAD_CAT_ID":65146,"ELEMENT_SET_NO":999,"REV_AT_EPOCH":3250,"BSTAR":0.00055774248,"MEAN_MOTION_DOT":4.033e-5,"MEAN_MOTION_DDOT":0},{"OBJECT_NAME":"KUIPER-00109","OBJECT_ID":"2025-171R","EPOCH":"2026-03-07T07:35:49.013664","MEAN_MOTION":14.79931666,"ECCENTRICITY":2.44e-5,"INCLINATION":51.9009,"RA_OF_ASC_NODE":166.0439,"ARG_OF_PERICENTER":64.1583,"MEAN_ANOMALY":295.9404,"EPHEMERIS_TYPE":0,"CLASSIFICATION_TYPE":"U","NORAD_CAT_ID":65147,"ELEMENT_SET_NO":999,"REV_AT_EPOCH":3257,"BSTAR":0.00058846145,"MEAN_MOTION_DOT":4.268e-5,"MEAN_MOTION_DDOT":0},{"OBJECT_NAME":"KUIPER-00110","OBJECT_ID":"2025-171S","EPOCH":"2026-03-07T08:06:33.065280","MEAN_MOTION":14.79958855,"ECCENTRICITY":0.00018938,"INCLINATION":51.8998,"RA_OF_ASC_NODE":178.5473,"ARG_OF_PERICENTER":182.6985,"MEAN_ANOMALY":177.3968,"EPHEMERIS_TYPE":0,"CLASSIFICATION_TYPE":"U","NORAD_CAT_ID":65148,"ELEMENT_SET_NO":999,"REV_AT_EPOCH":3239,"BSTAR":0.00098818246,"MEAN_MOTION_DOT":7.325e-5,"MEAN_MOTION_DDOT":0},{"OBJECT_NAME":"KUIPER-00111","OBJECT_ID":"2025-171T","EPOCH":"2026-03-07T07:08:05.642592","MEAN_MOTION":14.80049849,"ECCENTRICITY":0.00017952,"INCLINATION":51.8976,"RA_OF_ASC_NODE":183.6239,"ARG_OF_PERICENTER":144.2179,"MEAN_ANOMALY":215.8904,"EPHEMERIS_TYPE":0,"CLASSIFICATION_TYPE":"U","NORAD_CAT_ID":65149,"ELEMENT_SET_NO":999,"REV_AT_EPOCH":3232,"BSTAR":0.00099112449,"MEAN_MOTION_DOT":7.363e-5,"MEAN_MOTION_DDOT":0},{"OBJECT_NAME":"KUIPER-00112","OBJECT_ID":"2025-171U","EPOCH":"2026-03-07T06:47:02.956704","MEAN_MOTION":14.80029465,"ECCENTRICITY":2.955e-5,"INCLINATION":51.9012,"RA_OF_ASC_NODE":166.2471,"ARG_OF_PERICENTER":78.3409,"MEAN_ANOMALY":281.7587,"EPHEMERIS_TYPE":0,"CLASSIFICATION_TYPE":"U","NORAD_CAT_ID":65150,"ELEMENT_SET_NO":999,"REV_AT_EPOCH":3256,"BSTAR":0.00095822619,"MEAN_MOTION_DOT":7.108e-5,"MEAN_MOTION_DDOT":0},{"OBJECT_NAME":"KUIPER-00114","OBJECT_ID":"2025-171V","EPOCH":"2026-03-07T07:04:45.158304","MEAN_MOTION":14.79936363,"ECCENTRICITY":0.00010577,"INCLINATION":51.8989,"RA_OF_ASC_NODE":186.1919,"ARG_OF_PERICENTER":135.3184,"MEAN_ANOMALY":224.7864,"EPHEMERIS_TYPE":0,"CLASSIFICATION_TYPE":"U","NORAD_CAT_ID":65151,"ELEMENT_SET_NO":999,"REV_AT_EPOCH":3228,"BSTAR":0.00098753963,"MEAN_MOTION_DOT":7.316e-5,"MEAN_MOTION_DDOT":0}]
